{
    "links": {
        "self": "http://www.neowsapp.com/rest/v1/neo/3582870?api_key=iIulBulltgU6a56xZRHN4H3l9WmuAYTsLGpBGhQ2"
    },
    "id": "3582870",
    "neo_reference_id": "3582870",
    "name": "(2011 UB115)",
    "designation": "2011 UB115",
    "nasa_jpl_url": "http://ssd.jpl.nasa.gov/sbdb.cgi?sstr=3582870",
    "absolute_magnitude_h": 23.9,
    "estimated_diameter": {
        "kilometers": {
            "estimated_diameter_min": 0.04411182,
            "estimated_diameter_max": 0.0986370281
        },
        "meters": {
            "estimated_diameter_min": 44.1118199997,
            "estimated_diameter_max": 98.6370281305
        },
        "miles": {
            "estimated_diameter_min": 0.0274098057,
            "estimated_diameter_max": 0.0612901888
        },
        "feet": {
            "estimated_diameter_min": 144.7238235278,
            "estimated_diameter_max": 323.6123073718
        }
    },
    "is_potentially_hazardous_asteroid": false,
    "close_approach_data": [
        {
            "close_approach_date": "2011-11-19",
            "close_approach_date_full": "2011-Nov-19 06:14",
            "epoch_date_close_approach": 1321683240000,
            "relative_velocity": {
                "kilometers_per_second": "7.8540400418",
                "kilometers_per_hour": "28274.5441505787",
                "miles_per_hour": "17568.7021695638"
            },
            "miss_distance": {
                "astronomical": "0.1585329809",
                "lunar": "61.6693295701",
                "kilometers": "23716196.267390683",
                "miles": "14736561.0171421054"
            },
            "orbiting_body": "Earth"
        }
    ],
    "orbital_data": {
        "orbit_id": "4",
        "orbit_determination_date": "2017-04-06 08:52:15",
        "first_observation_date": "2011-10-24",
        "last_observation_date": "2011-10-25",
        "data_arc_in_days": 1,
        "observations_used": 11,
        "orbit_uncertainty": "9",
        "minimum_orbit_intersection": ".141624",
        "jupiter_tisserand_invariant": "3.930",
        "epoch_osculation": "2455859.5",
        "eccentricity": ".4259456931040334",
        "semi_major_axis": "1.798668059491264",
        "inclination": "12.81138363647391",
        "ascending_node_longitude": "208.9970828281279",
        "orbital_period": "881.0995120744128",
        "perihelion_distance": "1.032533146227171",
        "perihelion_argument": "240.1200899941015",
        "aphelion_distance": "2.564802972755357",
        "perihelion_time": "2455918.200000866157",
        "mean_anomaly": "336.0163295720542",
        "mean_motion": ".4085804101201186",
        "equinox": "J2000",
        "orbit_class": {
            "orbit_class_type": "AMO",
            "orbit_class_description": "Near-Earth asteroid orbits similar to that of 1221 Amor",
            "orbit_class_range": "1.017 AU < q (perihelion) < 1.3 AU"
        }
    },
    "is_sentry_object": false
}